NORAD_CAT_ID,OBJECT_NAME,OBJECT_TYPE,EPOCH,MEAN_MOTION,ECCENTRICITY,INCLINATION,RA_OF_ASC_NODE,ARG_OF_PERICENTER,MEAN_ANOMALY,BSTAR,MEAN_MOTION_DOT,MEAN_MOTION_DDOT,TLE_LINE0,TLE_LINE1,TLE_LINE2,SEMIMAJOR_AXIS,PERIOD,APOGEE,PERIGEE,DECAYED
55412.0,STARLINK-5033,PAYLOAD,2023-09-26 14:00:01,14.96662518,0.000312,70.003,181.2075,267.3176,219.2072,0.006881,0.00079461,0.0,0 STARLINK-5033,1 55412U 23014X   23269.58335648  .00079461  00000-0  68810-2 0  9993,2 55412  70.0030 181.2075 0003120 267.3176 219.2072 14.96662518 36551,6955.354,96.214,579.389,575.049,0.0
55412.0,STARLINK-5033,PAYLOAD,2023-09-26 22:00:00,14.96745984,0.0003135,70.0032,180.3695,269.1108,212.8655,-0.003359,-0.00038358,0.0,0 STARLINK-5033,1 55412U 23014X   23269.91667824 -.00038358  00000-0 -33590-2 0  9993,2 55412  70.0032 180.3695 0003135 269.1108 212.8655 14.96745984  5777,6955.096,96.209,579.141,574.78,0.0
55412.0,STARLINK-5033,PAYLOAD,2023-09-27 06:00:02,14.96708733,0.0003164,70.003,179.5311,275.2964,202.3106,-0.00022489,-2.664e-05,0.0,0 STARLINK-5033,1 55412U 23014X   23270.25002315 -.00002664  00000-0 -22489-3 0  9997,2 55412  70.0030 179.5311 0003164 275.2964 202.3106 14.96708733 36657,6955.211,96.211,579.277,574.875,0.0
55412.0,STARLINK-5033,PAYLOAD,2023-09-27 14:00:01,14.96663414,0.0003145,70.0032,178.693,269.973,203.1108,0.006956,0.0008034,0.0,0 STARLINK-5033,1 55412U 23014X   23270.58334491  .00080340  00000-0  69560-2 0  9991,2 55412  70.0032 178.6930 0003145 269.9730 203.1108 14.96663414  5592,6955.351,96.214,579.404,575.029,0.0
55412.0,STARLINK-5033,PAYLOAD,2023-09-28 06:00:00,14.96687181,0.0003054,70.0029,177.0166,276.5658,187.579,0.038242,0.00462853,0.0,0 STARLINK-5033,1 55412U 23014X   23271.25001157  .00462853  00000-0  38242-1 0  9991,2 55412  70.0029 177.0166 0003054 276.5658 187.5790 14.96687181 36801,6955.278,96.212,579.267,575.019,0.0
55412.0,STARLINK-5033,PAYLOAD,2023-09-28 16:00:30,14.97003025,0.0002987,70.0031,175.9679,270.6392,280.0436,0.045423,0.00554826,0.0,0 STARLINK-5033,1 55412U 23014X   23271.66702546  .00554826  00000-0  45423-1 0  9997,2 55412  70.0031 175.9679 0002987 270.6392 280.0436 14.97003025  5750,6954.299,96.192,578.242,574.087,0.0
55412.0,STARLINK-5033,PAYLOAD,2023-09-28 22:00:01,14.97281071,0.0002973,70.0032,175.3396,272.6667,183.2453,0.038751,0.00477032,0.0,0 STARLINK-5033,1 55412U 23014X   23271.91668981  .00477032  00000-0  38751-1 0  9998,2 55412  70.0032 175.3396 0002973 272.6667 183.2453 14.97281071  5799,6953.439,96.174,577.371,573.236,0.0
55412.0,STARLINK-5033,PAYLOAD,2023-09-29 03:58:54,14.97092234,0.0003095,70.0015,174.7101,276.712,83.3686,0.003965,0.00046035,0.0,0 STARLINK-5033,1 55412U 23014X   23272.16591426  .00046035  00000-0  39650-2 0  9990,2 55412  70.0015 174.7101 0003095 276.7120  83.3686 14.97092234 36931,6954.023,96.186,578.04,573.736,0.0
55412.0,STARLINK-5033,PAYLOAD,2023-09-29 18:24:25,14.97362486,0.0003962,70.0014,173.197,300.0165,60.06,0.0061533,0.00072266,0.0,0 STARLINK-5033,1 55412U 23014X   23272.76696710  .00072266  00000-0  61533-2 0  9998,2 55412  70.0014 173.1970 0003962 300.0165  60.0600 14.97362486 37028,6953.186,96.169,577.806,572.297,0.0
55412.0,STARLINK-5033,PAYLOAD,2023-09-30 06:00:00,14.98344544,0.0002969,70.0023,171.9805,277.466,166.2323,-0.0025065,-0.00029884,0.0,0 STARLINK-5033,1 55412U 23014X   23273.25001157 -.00029884  00000-0 -25065-2 0  9998,2 55412  70.0023 171.9805 0002969 277.4660 166.2323 14.98344544 37098,6950.148,96.106,574.076,569.949,0.0
55412.0,STARLINK-5033,PAYLOAD,2023-09-30 22:00:00,14.98345974,0.0002963,70.0024,170.2998,268.2091,170.4413,-0.002344,-0.00027961,0.0,0 STARLINK-5033,1 55412U 23014X   23273.91667824 -.00027961  00000-0 -23440-2 0  9999,2 55412  70.0024 170.2998 0002963 268.2091 170.4413 14.98345974 37190,6950.143,96.106,574.068,569.949,0.0
55412.0,STARLINK-5033,PAYLOAD,2023-10-01 14:00:01,14.98291979,0.000299,70.0017,168.6189,261.3675,172.2734,0.0076666,0.0009251,0.0,0 STARLINK-5033,1 55412U 23014X   23274.58334491  .00092510  00000-0  76666-2 0  9992,2 55412  70.0017 168.6189 0002990 261.3675 172.2734 14.98291979 37299,6950.31,96.109,574.254,570.097,0.0
55412.0,STARLINK-5033,PAYLOAD,2023-10-01 22:00:00,14.98369076,0.0003022,70.0018,167.7785,265.536,165.5714,-0.0048756,-0.00057849,0.0,0 STARLINK-5033,1 55412U 23014X   23274.91667824 -.00057849  00000-0 -48756-2 0  9995,2 55412  70.0018 167.7785 0003022 265.5360 165.5714 14.98369076 37349,6950.072,96.104,574.037,569.837,0.0
55412.0,STARLINK-5033,PAYLOAD,2023-10-02 14:00:01,14.9828292,0.0003111,70.0014,166.0976,263.714,162.3775,0.007297,0.00087969,0.0,0 STARLINK-5033,1 55412U 23014X   23275.58334491  .00087969  00000-0  72970-2 0  9999,2 55412  70.0014 166.0976 0003111 263.7140 162.3775 14.98282920 37449,6950.338,96.11,574.366,570.041,0.0
55412.0,STARLINK-5033,PAYLOAD,2023-10-02 22:00:00,14.98354406,0.0003114,70.0015,165.2572,267.8062,155.7486,-0.0034065,-0.00040531,0.0,0 STARLINK-5033,1 55412U 23014X   23275.91667824 -.00040531  00000-0 -34065-2 0  9994,2 55412  70.0015 165.2572 0003114 267.8062 155.7486 14.98354406  5779,6950.117,96.105,574.147,569.818,0.0
55412.0,STARLINK-5033,PAYLOAD,2023-10-03 06:00:00,14.98338159,0.0003089,70.0011,164.4167,272.3719,148.676,-0.0029138,-0.00034696,0.0,0 STARLINK-5033,1 55412U 23014X   23276.25001157 -.00034696  00000-0 -29138-2 0  9993,2 55412  70.0011 164.4167 0003089 272.3719 148.6760 14.98338159 37540,6950.168,96.106,574.18,569.886,0.0
55412.0,STARLINK-5033,PAYLOAD,2023-10-03 14:00:01,14.98284213,0.0003119,70.0013,163.5764,266.2609,152.2693,0.0071087,0.00085671,0.0,0 STARLINK-5033,1 55412U 23014X   23276.58334491  .00085671  00000-0  71087-2 0  9996,2 55412  70.0013 163.5764 0003119 266.2609 152.2693 14.98284213  5675,6950.334,96.11,574.367,570.032,0.0
55412.0,STARLINK-5033,PAYLOAD,2023-10-03 22:00:00,14.98347302,0.0003117,70.0013,162.7361,270.6171,145.3786,-0.002431,-0.00028993,0.0,0 STARLINK-5033,1 55412U 23014X   23276.91667824 -.00028993  00000-0 -24310-2 0  9995,2 55412  70.0013 162.7361 0003117 270.6171 145.3786 14.98347302 37647,6950.139,96.106,574.171,569.838,0.0
55412.0,STARLINK-5033,PAYLOAD,2023-10-03 23:21:12,14.9832749,0.0002649,70.0,162.5932,271.1406,88.945,-8.0543e-05,-1.054e-05,0.0,0 STARLINK-5033,1 55412U 23014X   23276.97306372 -.00001054  00000-0 -80543-4 0  9990,2 55412  70.0000 162.5932 0002649 271.1406  88.9450 14.98327490 37658,6950.201,96.107,573.907,570.225,0.0
55412.0,STARLINK-5033,PAYLOAD,2023-10-04 18:34:43,14.98653302,0.0002374,69.9997,160.5727,320.9215,39.1773,-0.0054037,-0.00064514,0.0,0 STARLINK-5033,1 55412U 23014X   23277.77411622 -.00064514  00000-0 -54037-2 0  9991,2 55412  69.9997 160.5727 0002374 320.9215  39.1773 14.98653302 37779,6949.193,96.086,572.708,569.409,0.0
55412.0,STARLINK-5033,PAYLOAD,2023-10-04 21:46:54,14.98796868,0.0003155,69.9999,160.2366,329.3085,30.7889,-0.0079713,-0.00095072,0.0,0 STARLINK-5033,1 55412U 23014X   23277.90757541 -.00095072  00000-0 -79713-2 0  9990,2 55412  69.9999 160.2366 0003155 329.3085  30.7889 14.98796868 38730,6948.75,96.077,572.807,568.422,0.0
55412.0,STARLINK-5033,PAYLOAD,2023-10-05 00:59:35,14.9735808,0.0003168,70.0003,159.9022,56.5908,303.5553,0.016383,0.00195988,0.0,0 STARLINK-5033,1 55412U 23014X   23278.04137969  .00195988  00000-0  16383-1 0  9990,2 55412  70.0003 159.9022 0003168  56.5908 303.5553 14.97358080 37816,6953.2,96.169,577.268,572.862,0.0
55412.0,STARLINK-5033,PAYLOAD,2023-10-05 14:00:01,14.98291469,0.0003155,70.0011,158.5343,265.4439,138.0064,0.0068169,0.00082124,0.0,0 STARLINK-5033,1 55412U 23014X   23278.58334491  .00082124  00000-0  68169-2 0  9995,2 55412  70.0011 158.5343 0003155 265.4439 138.0064 14.98291469 37896,6950.312,96.109,574.37,569.984,0.0
55412.0,STARLINK-5033,PAYLOAD,2023-10-05 18:36:42,14.98349677,0.0003736,70.0004,158.0507,282.9521,77.122,-4.1203e-05,-5.85e-06,0.0,0 STARLINK-5033,1 55412U 23014X   23278.77548743 -.00000585  00000-0 -41203-4 0  9998,2 55412  70.0004 158.0507 0003736 282.9521  77.1220 14.98349677 37922,6950.132,96.106,574.594,569.4,0.0
55412.0,STARLINK-5033,PAYLOAD,2023-10-06 02:37:13,14.98476252,0.0003382,70.0039,157.2154,264.5614,95.5159,0.00083988,9.981e-05,0.0,0 STARLINK-5033,1 55412U 23014X   23279.10918856  .00009981  00000-0  83988-3 0  9994,2 55412  70.0039 157.2154 0003382 264.5614  95.5159 14.98476252 37975,6949.741,96.098,573.956,569.255,0.0
55412.0,STARLINK-5033,PAYLOAD,2023-10-06 13:50:23,14.98352411,0.0003285,70.0002,156.0314,259.4412,100.6377,0.00031691,3.693e-05,0.0,0 STARLINK-5033,1 55412U 23014X   23279.57665871  .00003693  00000-0  31691-3 0  9999,2 55412  70.0002 156.0314 0003285 259.4412 100.6377 14.98352411 38983,6950.124,96.106,574.272,569.705,0.0
55412.0,STARLINK-5033,PAYLOAD,2023-10-06 18:38:50,14.98326246,0.0003203,69.9998,155.5259,276.8413,83.2382,-0.00019577,-2.428e-05,0.0,0 STARLINK-5033,1 55412U 23014X   23279.77697446 -.00002428  00000-0 -19577-3 0  9990,2 55412  69.9998 155.5259 0003203 276.8413  83.2382 14.98326246 38079,6950.204,96.107,574.296,569.843,0.0
55412.0,STARLINK-5033,PAYLOAD,2023-10-06 21:51:07,14.98326778,0.0003393,69.9997,155.1882,279.348,80.7295,-0.00015146,-1.9e-05,0.0,0 STARLINK-5033,1 55412U 23014X   23279.91049859 -.00001900  00000-0 -15146-3 0  9997,2 55412  69.9997 155.1882 0003393 279.3480  80.7295 14.98326778 39030,6950.203,96.107,574.426,569.71,0.0
55412.0,STARLINK-5033,PAYLOAD,2023-10-06 23:27:15,14.98328031,0.0003009,69.9999,155.02,270.1129,89.9685,-0.00014277,-1.796e-05,0.0,0 STARLINK-5033,1 55412U 23014X   23279.97725707 -.00001796  00000-0 -14277-3 0  9993,2 55412  69.9999 155.0200 0003009 270.1129  89.9685 14.98328031 39047,6950.199,96.107,574.155,569.973,0.0
55412.0,STARLINK-5033,PAYLOAD,2023-10-07 18:40:47,14.98506761,0.0005016,69.9996,152.9998,279.4102,80.649,-0.0030587,-0.00036573,0.0,0 STARLINK-5033,1 55412U 23014X   23280.77832640 -.00036573  00000-0 -30587-2 0  9990,2 55412  69.9996 152.9998 0005016 279.4102  80.6490 14.98506761 38226,6949.646,96.096,574.997,568.025,0.0
